STARLINK-32569          
1 61867U 24202Y   26068.49794347 -.00000075  00000+0  67999-5 0  9994
2 61867  42.9979 239.4680 0001057 268.5924  91.4806 15.27573246 75306
KUIPER-00266            
1 67789U 26030AB  26067.91293632  .00029701  00000+0  98220-3 0  9996
2 67789  51.8807 223.5904 0022313  72.5291 287.8129 15.30874235  4964
